EUTELSAT 8 WEST B       
1 40875U 15039B   25228.82060410 -.00000071  00000+0  00000+0 0  9999
2 40875   0.0662   8.1533 0003652 136.6727 108.0413  1.00272218 36603
EUTELSAT 9B             
1 41310U 16005A   25228.82398411  .00000056  00000+0  00000+0 0  9995
2 41310   0.0381  70.7120 0001567 111.5193  88.8328  1.00272088 35069
EUTELSAT 65 WEST A      
1 41382U 16014A   25228.80931284 -.00000282  00000+0  00000+0 0  9995
2 41382   0.0612  38.0401 0002124 109.4540  44.0877  1.00272865 34487
EUTELSAT 117 WEST B     
1 41589U 16038B   25228.55669747 -.00000017  00000+0  00000+0 0  9990
2 41589   0.0082 230.5461 0000348 212.3609 325.6898  1.00273866 33659
EUTELSAT 172B           
1 42741U 17029B   25228.78495939 -.00000011  00000+0  00000+0 0  9991
2 42741   0.0171 147.8412 0000211 150.3998 121.7522  1.00271780 30677
EUTELSAT 7C             
1 44334U 19034B   25228.60945891  .00000043  00000+0  00000+0 0  9991
2 44334   0.0727 186.9059 0003177 307.2774  57.4676  1.00270672  3780
EUTELSAT 5 WEST B       
1 44624U 19067A   25228.82121076 -.00000048  00000+0  00000+0 0  9990
2 44624   0.1052 303.1818 0002995 209.2312 103.6368  1.00271053 21388
EUTELSAT KONNECT        
1 45027U 20005B   25228.32403972  .00000045  00000+0  00000+0 0  9991
2 45027   0.0621  97.8222 0001506  90.9844 259.9825  1.00269053 21262
